satname,norad_id,inclination_deg,eccentricity,mean_motion_rev_per_day,perigee_km,apogee_km,l1,l2
STARLINK-1309,45414,53.0613,0.000624,15.65633796,367.2048648835753,375.6283077593034,1 45414U 20019BG  26131.31474959  .00028555  00000+0  28251-3 0  9990,2 45414  53.0613 178.2837 0006240 327.0360  33.0264 15.65633796339810
STARLINK-1316,45415,53.1569,0.0005856,15.36226152,453.2780883172845,461.2837297723572,1 45415U 20019BH  26131.45347263  .00037611  00000+0  10551-2 0  9999,2 45415  53.1569 196.4712 0005856 345.7632  14.3205 15.36226152339625
STARLINK-1286,45417,53.0462,0.0003377,15.56084986,396.71190233704965,401.2891810327028,1 45417U 20019BK  26131.84802536  .00028568  00000+0  40750-3 0  9999,2 45417  53.0462 186.0618 0003377 332.7376  27.3457 15.56084986340045
STARLINK-1308,45419,53.0476,0.0007666,15.62309258,375.8068531576173,386.1699442188856,1 45419U 20019BM  26131.92889809  .00083804  00000+0  92643-3 0  9990,2 45419  53.0476 205.6865 0007666 317.6514  42.3906 15.62309258339521
STARLINK-1329,45531,53.0425,0.0005121,15.69867445,355.8260114315626,362.726470072741,1 45531U 20025A   26131.72532854  .00041890  00000+0  34639-3 0  9995,2 45531  53.0425 131.8464 0005121  46.9461 313.1983 15.69867445335324
STARLINK-1338,45532,53.0441,0.0004655,15.65192714,369.54206620412424,375.82708108918905,1 45532U 20025B   26131.40941598  .00031098  00000+0  31263-3 0  9999,2 45532  53.0441 139.0529 0004655  25.4647 334.6596 15.65192714335193
STARLINK-1350,45535,53.0707,0.0001376,15.37626955,452.1888455001463,454.06880985592215,1 45535U 20025E   26131.60852713  .00006371  00000+0  18025-3 0  9991,2 45535  53.0707  97.2922 0001376  61.4528 298.6613 15.37626955335836
STARLINK-1362,45538,53.1586,0.000305,15.34556115,460.15295810190946,464.3255876283565,1 45538U 20025H   26131.79836821 -.00154804  00000+0 -46411-2 0  9992,2 45538  53.1586 166.9727 0003050  48.7105 311.4160 15.34556115334851
STARLINK-1368,45540,53.1589,0.0004798,15.35016014,457.59157214666993,464.154286074644,1 45540U 20025K   26131.81231181 -.00008914  00000+0 -24783-3 0  9995,2 45540  53.1589 167.2815 0004798  40.9081 319.2281 15.35016014334845
STARLINK-1371,45542,53.0465,0.0006965,15.5758822,389.9221746706926,399.3566522146193,1 45542U 20025M   26131.32506311  .00063390  00000+0  84285-3 0  9993,2 45542  53.0465 147.7787 0006965  24.0825 336.0510 15.57588220335061
STARLINK-1372,45543,53.1571,0.0003856,15.35565491,456.6048534610554,461.87783964191567,1 45543U 20025N   26131.51971968  .00035372  00000+0  10147-2 0  9993,2 45543  53.1571 168.2517 0003856  22.2282 337.8888 15.35565491333902
STARLINK-1373,45544,53.0451,0.0004136,15.66912018,364.9553190550123,370.5355129895461,1 45544U 20025P   26131.45895915  .00033482  00000+0  31380-3 0  9997,2 45544  53.0451 144.4035 0004136 359.4479   0.6531 15.66912018335126
STARLINK-1327,45555,53.0408,0.0005179,15.64662585,370.712294265908,377.7063745991127,1 45555U 20025AA  26131.39576773  .00031935  00000+0  32763-3 0  9997,2 45555  53.0408 121.4090 0005179   3.2398 356.8649 15.64662585335437
STARLINK-1356,45564,53.0468,0.0004152,15.54303584,401.3617634676102,406.993797661391,1 45564U 20025AK  26131.41636642  .00061534  00000+0  92460-3 0  9990,2 45564  53.0468 132.9869 0004152  10.1041 350.0052 15.54303584335272
STARLINK-1357,45565,53.0452,0.0007874,15.66447964,363.764887389194,374.39040101088085,1 45565U 20025AL  26131.35784289  .00038943  00000+0  37035-3 0  9990,2 45565  53.0452  91.8718 0007874  39.4248 320.7339 15.66447964335859
STARLINK-1361,45567,53.0442,0.0002283,15.57974027,391.97528555390545,395.0672247131997,1 45567U 20025AN  26131.88771253  .00072666  00000+0  95108-3 0  9992,2 45567  53.0442 129.2949 0002283  10.0147 350.0909 15.57974027335375
STARLINK-1363,45568,53.0313,0.0001936,16.00040771,273.0177777605095,275.5936035703362,1 45568U 20025AP  26132.00002315  .00232301  33698-4  44710-3 0  9995,2 45568  53.0313  76.8596 0001936 138.1794 194.7597 16.00040771  5887
STARLINK-1366,45569,53.033,0.0001443,15.95207576,286.7741737332526,288.69794469814315,1 45569U 20025AQ  26132.00002315  .00173605  22891-4  43934-3 0  9997,2 45569  53.0330  78.6841 0001443  80.9491  21.5856 15.95207576  5887
STARLINK-1376,45570,53.1583,0.0005454,15.35899237,454.5222511056809,461.9793829364871,1 45570U 20025AR  26131.76302187  .00029931  00000+0  85157-3 0  9999,2 45570  53.1583 143.5803 0005454  23.3557 336.7693 15.35899237335173
STARLINK-1320,45572,53.0457,0.0003299,15.80008306,328.2039720583116,332.63027606936885,1 45572U 20025AT  26131.91252016  .00078942  00000+0  41583-3 0  9994,2 45572  53.0457  31.1668 0003299 204.3475 155.7391 15.80008306336769
STARLINK-1321,45573,53.0427,0.0005471,15.59310963,385.9474155046946,393.3527281186707,1 45573U 20025AU  26131.65850545  .00081667  00000+0  10140-2 0  9999,2 45573  53.0427 114.5122 0005471  35.9051 324.2328 15.59310963335257
STARLINK-1331,45578,53.0468,0.0007019,15.58761042,386.49030617635526,395.99316004189313,1 45578U 20025AZ  26131.93412237  .00075468  00000+0  95753-3 0  9993,2 45578  53.0468 120.0120 0007019  17.0915 343.0332 15.58761042335517
STARLINK-1333,45580,53.1574,0.0003521,15.32880784,464.81214817898126,469.63265026791396,1 45580U 20025BB  26131.75782499  .00031419  00000+0  98295-3 0  9998,2 45580  53.1574 144.5397 0003521  46.4527 313.6767 15.32880784335168
STARLINK-1335,45581,53.1553,0.0004533,15.34440854,459.480918364261,465.6827140430305,1 45581U 20025BC  26131.42400809  .00036376  00000+0  10809-2 0  9996,2 45581  53.1553 143.1274 0004533  36.3158 323.8152 15.34440854335148
STARLINK-1337,45582,53.0461,0.0007579,15.70777162,351.5703565553504,361.77898408522196,1 45582U 20025BD  26131.92986430  .00044875  00000+0  35657-3 0  9993,2 45582  53.0461 111.6748 0007579  25.9538 334.1857 15.70777162335615
STARLINK-1347,45586,53.0388,0.0005124,15.65727857,367.6879315393353,374.60459702857406,1 45586U 20025BH  26131.82746188  .00035782  00000+0  35109-3 0  9999,2 45586  53.0388  81.6237 0005124  56.6730 303.4775 15.65727857336029
STARLINK-1364,45589,53.044,0.0005268,15.60127085,383.72562982366617,390.85368334904706,1 45589U 20025BL  26131.66950509  .00041026  00000+0  49942-3 0  9996,2 45589  53.0440 118.6503 0005268 359.3525   0.7480 15.60127085335494
STARLINK-1365,45590,53.0478,0.0005583,15.54992688,398.38843696809363,405.95933210176463,1 45590U 20025BM  26131.78131411  .00064662  00000+0  94647-3 0  9997,2 45590  53.0478 150.6595 0005583 357.6084   2.4898 15.54992688335073
STARLINK-1443,45660,53.1327,0.0004387,15.3040132,471.607728206317,477.6203319601118,1 45660U 20035D   26131.70693500  .00025087  00000+0  85083-3 0  9992,2 45660  53.1327 133.0534 0004387  17.3872 342.7278 15.30401320328390
STARLINK-1446,45663,53.0232,0.0004662,15.46078372,425.03821171045365,431.38445089455945,1 45663U 20035G   26131.52020741  .00024549  00000+0  50083-3 0  9990,2 45663  53.0232  60.2590 0004662  92.6894 267.4645 15.46078372329381
STARLINK-1448,45665,53.0438,0.0007408,15.65127096,367.8721095258634,377.8744063240056,1 45665U 20035J   26131.91867489  .00036437  00000+0  36579-3 0  9996,2 45665  53.0438 105.1256 0007408  18.4346 341.6936 15.65127096328788
STARLINK-1451,45668,53.0503,0.0002502,15.13030812,525.2356731556383,528.6909853603984,1 45668U 20035M   26131.75504265  .00014980  00000+0  85308-3 0  9994,2 45668  53.0503 140.6270 0002502  37.7206 322.3961 15.13030812328284
STARLINK-1452,45669,53.0264,8.43e-05,15.54333972,403.517640180773,404.6611235487553,1 45669U 20035N   26131.23713526  .00074178  00000+0  11104-2 0  9997,2 45669  53.0264  81.5919 0000843  71.3663 288.7438 15.54333972329068
STARLINK-1453,45670,53.0408,0.0003332,15.65498072,369.5576101841907,374.0557726601546,1 45670U 20035P   26131.95716509  .00038968  00000+0  38536-3 0  9998,2 45670  53.0408  65.3157 0003332  99.3604 260.7787 15.65498072329247
STARLINK-1454,45671,53.044,0.0004102,15.63090128,375.9654457332945,381.5087852576462,1 45671U 20035Q   26131.19455469  .00098056  00000+0  10497-2 0  9999,2 45671  53.0440 109.6100 0004102   4.0135 356.0911 15.63090128328652
STARLINK-1456,45673,53.0434,0.0007385,15.61295737,378.91944932840306,388.9069975083912,1 45673U 20035S   26131.90318952  .00090667  00000+0  10411-2 0  9991,2 45673  53.0434 100.4263 0007385  53.0603 307.1085 15.61295737328869
STARLINK-1457,45674,53.0338,0.0002513,16.1088577,242.75025763649955,246.07875202282685,1 45674U 20035T   26131.99394332  .00599333  20146-3  58637-3 0  9991,2 45674  53.0338  59.6130 0002513 210.0867 150.0023 16.10885770329401
STARLINK-1458,45675,53.0474,0.0005942,15.52438925,405.5743133103624,413.64086898248115,1 45675U 20035U   26131.38383022  .00074492  00000+0  11935-2 0  9995,2 45675  53.0474 115.7430 0005942   9.2643 350.8475 15.52438925328567
STARLINK-1460,45676,53.1573,0.0004154,15.32730691,464.8255329139456,470.51302877206945,1 45676U 20035V   26131.40439007  .00036523  00000+0  11453-2 0  9992,2 45676  53.1573 133.3430 0004154  50.7641 309.3729 15.32730691328326
STARLINK-1392,45677,53.1533,0.0003375,15.35853715,456.0785748084336,460.69322776680383,1 45677U 20035W   26131.41418318  .00037941  00000+0  10773-2 0  9995,2 45677  53.1533 132.5652 0003375  55.3613 304.7708 15.35853715328371
STARLINK-1394,45679,53.0411,0.0008046,15.61166461,378.84547044553074,389.72756236813257,1 45679U 20035Y   26131.90130140  .00087380  00000+0  10088-2 0  9996,2 45679  53.0411  90.6648 0008046  58.6017 301.5782 15.61166461328999
STARLINK-1402,45685,53.0414,0.0007537,15.54549018,398.3526027072003,408.5751878967785,1 45685U 20035AE  26131.59339083  .00067688  00000+0  10057-2 0  9990,2 45685  53.0414  81.5938 0007537  77.1657 283.0195 15.54549018329101
STARLINK-1404,45686,53.1576,0.0005291,15.41590495,437.80646257605713,445.02291217163656,1 45686U 20035AF  26131.64358834  .00044885  00000+0  10543-2 0  9996,2 45686  53.1576 114.2781 0005291  66.6600 293.4962 15.41590495328655
